OBJECT_NAME,OBJECT_ID,EPOCH,MEAN_MOTION,ECCENTRICITY,INCLINATION,RA_OF_ASC_NODE,ARG_OF_PERICENTER,MEAN_ANOMALY,EPHEMERIS_TYPE,CLASSIFICATION_TYPE,NORAD_CAT_ID,ELEMENT_SET_NO,REV_AT_EPOCH,BSTAR,MEAN_MOTION_DOT,MEAN_MOTION_DDOT
SL-16 R/B,1995-058B,2026-07-12T05:15:48.237120,14.15508045,.0014606,71.0212,278.8033,286.6464,73.3055,0,U,23705,999,58547,.17966E-4,-.13E-6,0
SL-16 R/B,1996-051B,2026-07-12T04:08:02.120064,14.12455271,.0017566,70.7648,271.7742,302.0291,57.9122,0,U,24298,999,53922,.10137E-3,.138E-5,0
ORBVIEW 2 (SEASTAR),1997-037A,2026-07-11T09:57:00.863712,14.35565701,.00031792,98.8709,0.1077,68.4004,291.7519,0,U,24883,999,52622,.59286711E-4,.124E-5,0
SL-16 R/B,1998-043G,2026-07-11T20:23:23.453664,14.26072367,.00102126,98.8378,147.2228,20.7516,339.4077,0,U,25400,999,45668,.15857049E-4,-.8E-7,0
SL-16 R/B,1998-045B,2026-07-12T04:03:33.562080,14.16206363,.0008337,71.0116,279.7925,210.9569,149.1063,0,U,25407,999,44472,-.10511E-3,-.256E-5,0
ISS (ZARYA),1998-067A,2026-07-12T03:41:07.946016,15.48987212,.0006701,51.6303,176.5328,285.7692,74.2557,0,U,25544,999,57562,.96681E-4,.4878E-4,0
CZ-4B R/B,1999-025C,2026-07-12T02:30:45.861408,14.18287345,.0036807,98.6473,234.3146,348.7289,35.8539,0,U,25732,999,40580,.25246E-4,.9E-7,0
OKEAN-O,1999-039A,2026-07-12T03:38:41.841024,14.80495232,.0000933,97.9303,251.6616,81.5197,278.6121,0,U,25860,999,45280,.43506E-4,.281E-5,0
SL-16 R/B,1999-039B,2026-07-12T03:36:41.905728,14.81868951,.0014092,97.9824,251.9407,208.7043,151.3395,0,U,25861,999,45529,.38747E-4,.253E-5,0
DELTA 2 R/B,1999-041E,2026-07-11T22:46:23.395296,14.12075728,.0501306,51.7613,164.8684,355.1714,4.4482,0,U,25876,999,38058,.2493E-3,.1312E-4,0
HELIOS 1B,1999-064A,2026-07-12T04:38:13.357824,14.88070775,.0002086,98.1589,99.0547,57.7320,302.4097,0,U,25977,999,70377,.82672E-4,.701E-5,0
TERRA,1999-068A,2026-07-12T03:22:59.503008,14.61122234,.0003287,97.9443,241.6962,128.6540,242.9221,0,U,25994,999,41325,.49764E-4,.2E-5,0
SL-16 R/B,2000-006B,2026-07-12T00:06:57.979872,14.15838815,.0017069,71.0002,196.4413,344.4104,15.6491,0,U,26070,999,36615,-.96142E-4,-.237E-5,0
TITAN 4B R/B,2000-047B,2026-07-12T03:50:58.788096,15.10324311,.0045906,67.9872,50.2720,261.7588,97.8354,0,U,26474,999,41170,.88652E-4,.135E-4,0
ENVISAT,2002-009A,2026-07-11T20:42:00.523584,14.39070297,.00013388,98.3845,143.6323,83.7867,336.5198,0,U,27386,999,27703,.20085906E-4,.19E-6,0
IDEFIX & ARIANE 42P R/B,2002-021B,2026-07-11T19:26:45.435840,14.31092847,.00116809,98.5942,130.0269,176.2663,183.8609,0,U,27422,999,26177,.49517325E-4,.87E-6,0
AQUA,2002-022A,2026-07-12T05:40:06.333024,14.62194503,.0000846,98.4293,163.0223,107.6363,309.2398,0,U,27424,999,28693,.88336E-4,.395E-5,0
CZ-4B R/B,2002-024C,2026-07-11T23:51:49.252320,14.14567830,.0050634,98.8688,245.6517,31.0033,17.9338,0,U,27432,999,24681,.23597E-4,.2E-7,0
MIDORI II (ADEOS-II),2002-056A,2026-07-11T20:21:51.528384,14.29362111,.0001617,98.7892,152.3199,43.6524,316.4785,0,U,27597,999,22803,.62714914E-4,.114E-5,0
H-2A R/B,2002-056E,2026-07-11T20:29:09.557376,14.33832769,.00706925,98.3326,148.6307,150.7915,263.9999,0,U,27601,999,23190,.5669937E-4,.121E-5,0
CZ-4B R/B,2003-049C,2026-07-11T23:40:02.031168,14.55114759,.0047437,98.6908,192.8211,211.1841,148.6538,0,U,28059,999,20467,.4456E-4,.143E-5,0
CZ-2C R/B,2004-012C,2026-07-12T03:37:32.399616,15.84548107,.001158,97.7081,271.8195,200.8727,159.2071,0,U,28222,999,22384,.4426E-3,.102383E-2,0
SL-16 R/B,2004-021B,2026-07-11T20:09:15.483456,14.14615883,.00064275,71.0025,331.9498,227.8280,132.2297,0,U,28353,999,14039,.75275316E-4,.97E-6,0
CZ-4B R/B,2004-035C,2026-07-12T00:54:13.906944,15.30964386,.0029049,97.3361,225.8348,244.4773,115.3464,0,U,28415,999,19892,.15152E-3,.4512E-4,0
CZ-2C R/B,2004-046B,2026-07-12T03:40:35.157216,14.27032478,.0139966,98.1921,100.3709,146.3402,214.6768,0,U,28480,999,12625,.30834E-4,.43E-6,0
ARIANE 5 R/B,2004-049H,2026-07-11T10:43:35.851872,14.85476298,.00828051,98.2738,5.6402,310.5973,48.8055,0,U,28499,999,16416,.38804579E-4,.289E-5,0
CZ-2D R/B,2005-024B,2026-07-11T23:56:29.393088,15.72451238,.0002,97.3477,213.7144,202.0558,158.0619,0,U,28738,999,15923,.31676E-3,.42114E-3,0
ALOS (DAICHI),2006-002A,2026-07-11T20:47:04.971264,14.70098011,.00007748,98.1336,148.3587,90.2748,269.8547,0,U,28931,999,9172,.94674645E-4,.519E-5,0
H-2A R/B,2006-002B,2026-07-11T23:13:20.176032,15.18413845,.0050613,98.2582,351.0476,176.9533,183.2017,0,U,28932,999,11328,.24366E-3,.5099E-4,0
RESURS-DK 1,2006-021A,2026-07-11T14:59:58.583040,15.13311404,.0006915,69.9312,276.2899,275.2250,84.8127,0,U,29228,999,10627,.6271749E-4,.1011E-4,0
